{"fetched_at":"2026-07-19T07:05:14.667Z","source":"https://celestrak.org/NORAD/elements/gp.php?NAME=HULIANWANG&FORMAT=JSON","constellation":"guowang","records":[{"OBJECT_NAME":"HULIANWANG DIGUI-12","OBJECT_ID":"2025-030B","EPOCH":"2026-07-18T19:39:31.078944","CLASSIFICATION_TYPE":"U","MEAN_MOTION":13.2932243,"ECCENTRICITY":0.0000907,"INCLINATION":50.0019,"RA_OF_ASC_NODE":122.5009,"ARG_OF_PERICENTER":283.2107,"MEAN_ANOMALY":76.8664,"EPHEMERIS_TYPE":0,"NORAD_CAT_ID":62972,"ELEMENT_SET_NO":999,"REV_AT_EPOCH":7006,"BSTAR":0.000065,"MEAN_MOTION_DOT":-9.4e-7,"MEAN_MOTION_DDOT":0},{"OBJECT_NAME":"HULIANWANG DIGUI-13","OBJECT_ID":"2025-030C","EPOCH":"2026-07-18T19:15:19.291968","CLASSIFICATION_TYPE":"U","MEAN_MOTION":13.29324556,"ECCENTRICITY":0.0000719,"INCLINATION":50.0022,"RA_OF_ASC_NODE":122.429,"ARG_OF_PERICENTER":284.172,"MEAN_ANOMALY":75.9072,"EPHEMERIS_TYPE":0,"NORAD_CAT_ID":62973,"ELEMENT_SET_NO":999,"REV_AT_EPOCH":7006,"BSTAR":0.000051698,"MEAN_MOTION_DOT":-0.000001,"MEAN_MOTION_DDOT":0},{"OBJECT_NAME":"HULIANWANG DIGUI-14","OBJECT_ID":"2025-030D","EPOCH":"2026-07-18T18:39:18.897120","CLASSIFICATION_TYPE":"U","MEAN_MOTION":13.29327518,"ECCENTRICITY":0.000073,"INCLINATION":50.0027,"RA_OF_ASC_NODE":122.3219,"ARG_OF_PERICENTER":288.947,"MEAN_ANOMALY":71.1323,"EPHEMERIS_TYPE":0,"NORAD_CAT_ID":62974,"ELEMENT_SET_NO":999,"REV_AT_EPOCH":7006,"BSTAR":0.000065477,"MEAN_MOTION_DOT":-9.4e-7,"MEAN_MOTION_DDOT":0},{"OBJECT_NAME":"HULIANWANG DIGUI-15","OBJECT_ID":"2025-030E","EPOCH":"2026-07-18T19:03:19.776096","CLASSIFICATION_TYPE":"U","MEAN_MOTION":13.29324533,"ECCENTRICITY":0.0000815,"INCLINATION":50.0023,"RA_OF_ASC_NODE":122.3887,"ARG_OF_PERICENTER":287.3398,"MEAN_ANOMALY":72.7385,"EPHEMERIS_TYPE":0,"NORAD_CAT_ID":62975,"ELEMENT_SET_NO":999,"REV_AT_EPOCH":7006,"BSTAR":0.000049224,"MEAN_MOTION_DOT":-0.00000101,"MEAN_MOTION_DDOT":0},{"OBJECT_NAME":"HULIANWANG DIGUI-16","OBJECT_ID":"2025-030F","EPOCH":"2026-07-18T20:15:39.827808","CLASSIFICATION_TYPE":"U","MEAN_MOTION":13.29325611,"ECCENTRICITY":0.0000697,"INCLINATION":50.0045,"RA_OF_ASC_NODE":122.0795,"ARG_OF_PERICENTER":287.5928,"MEAN_ANOMALY":72.4868,"EPHEMERIS_TYPE":0,"NORAD_CAT_ID":62976,"ELEMENT_SET_NO":999,"REV_AT_EPOCH":7007,"BSTAR":0.000057159,"MEAN_MOTION_DOT":-9.8e-7,"MEAN_MOTION_DDOT":0},{"OBJECT_NAME":"HULIANWANG DIGUI-17","OBJECT_ID":"2025-030G","EPOCH":"2026-07-18T20:03:29.511072","CLASSIFICATION_TYPE":"U","MEAN_MOTION":13.29325751,"ECCENTRICITY":0.0000809,"INCLINATION":50.0058,"RA_OF_ASC_NODE":122.0874,"ARG_OF_PERICENTER":278.8617,"MEAN_ANOMALY":81.2163,"EPHEMERIS_TYPE":0,"NORAD_CAT_ID":62977,"ELEMENT_SET_NO":999,"REV_AT_EPOCH":7007,"BSTAR":0.000066914,"MEAN_MOTION_DOT":-9.3e-7,"MEAN_MOTION_DDOT":0},{"OBJECT_NAME":"HULIANWANG DIGUI-18","OBJECT_ID":"2025-030H","EPOCH":"2026-07-18T19:51:25.807392","CLASSIFICATION_TYPE":"U","MEAN_MOTION":13.29327755,"ECCENTRICITY":0.0000837,"INCLINATION":50.0062,"RA_OF_ASC_NODE":122.0585,"ARG_OF_PERICENTER":278.363,"MEAN_ANOMALY":81.7147,"EPHEMERIS_TYPE":0,"NORAD_CAT_ID":62978,"ELEMENT_SET_NO":999,"REV_AT_EPOCH":7007,"BSTAR":0.000071807,"MEAN_MOTION_DOT":-9.1e-7,"MEAN_MOTION_DDOT":0},{"OBJECT_NAME":"HULIANWANG DIGUI-19","OBJECT_ID":"2025-030J","EPOCH":"2026-07-18T18:51:30.133152","CLASSIFICATION_TYPE":"U","MEAN_MOTION":13.29319091,"ECCENTRICITY":0.0000726,"INCLINATION":50.0047,"RA_OF_ASC_NODE":122.4438,"ARG_OF_PERICENTER":277.191,"MEAN_ANOMALY":82.8879,"EPHEMERIS_TYPE":0,"NORAD_CAT_ID":62979,"ELEMENT_SET_NO":999,"REV_AT_EPOCH":7006,"BSTAR":0.000053273,"MEAN_MOTION_DOT":-9.9e-7,"MEAN_MOTION_DDOT":0},{"OBJECT_NAME":"HULIANWANG DIGUI-20","OBJECT_ID":"2025-086A","EPOCH":"2026-07-18T19:56:02.403168","CLASSIFICATION_TYPE":"U","MEAN_MOTION":13.24411661,"ECCENTRICITY":0.0002105,"INCLINATION":86.5066,"RA_OF_ASC_NODE":302.4758,"ARG_OF_PERICENTER":111.8574,"MEAN_ANOMALY":248.2784,"EPHEMERIS_TYPE":0,"NORAD_CAT_ID":63687,"ELEMENT_SET_NO":999,"REV_AT_EPOCH":5906,"BSTAR":0.000075015,"MEAN_MOTION_DOT":4.7e-7,"MEAN_MOTION_DDOT":0},{"OBJECT_NAME":"HULIANWANG DIGUI-21","OBJECT_ID":"2025-086B","EPOCH":"2026-07-18T20:06:57.934656","CLASSIFICATION_TYPE":"U","MEAN_MOTION":13.2441029,"ECCENTRICITY":0.0002051,"INCLINATION":86.5095,"RA_OF_ASC_NODE":302.5395,"ARG_OF_PERICENTER":114.7592,"MEAN_ANOMALY":245.3756,"EPHEMERIS_TYPE":0,"NORAD_CAT_ID":63688,"ELEMENT_SET_NO":999,"REV_AT_EPOCH":5905,"BSTAR":0.000088062,"MEAN_MOTION_DOT":5.2e-7,"MEAN_MOTION_DDOT":0},{"OBJECT_NAME":"HULIANWANG DIGUI-22","OBJECT_ID":"2025-086C","EPOCH":"2026-07-18T20:17:47.679072","CLASSIFICATION_TYPE":"U","MEAN_MOTION":13.24410658,"ECCENTRICITY":0.0002145,"INCLINATION":86.506,"RA_OF_ASC_NODE":302.3943,"ARG_OF_PERICENTER":111.0251,"MEAN_ANOMALY":249.1113,"EPHEMERIS_TYPE":0,"NORAD_CAT_ID":63689,"ELEMENT_SET_NO":999,"REV_AT_EPOCH":5905,"BSTAR":0.00011609,"MEAN_MOTION_DOT":6.4e-7,"MEAN_MOTION_DDOT":0},{"OBJECT_NAME":"HULIANWANG DIGUI-23","OBJECT_ID":"2025-086D","EPOCH":"2026-07-18T18:50:43.744128","CLASSIFICATION_TYPE":"U","MEAN_MOTION":13.24410471,"ECCENTRICITY":0.000212,"INCLINATION":86.5102,"RA_OF_ASC_NODE":302.6058,"ARG_OF_PERICENTER":111.5412,"MEAN_ANOMALY":248.5948,"EPHEMERIS_TYPE":0,"NORAD_CAT_ID":63690,"ELEMENT_SET_NO":999,"REV_AT_EPOCH":5904,"BSTAR":0.00011102,"MEAN_MOTION_DOT":6.2e-7,"MEAN_MOTION_DDOT":0},{"OBJECT_NAME":"HULIANWANG DIGUI-24","OBJECT_ID":"2025-086E","EPOCH":"2026-07-18T20:50:26.812896","CLASSIFICATION_TYPE":"U","MEAN_MOTION":13.24411153,"ECCENTRICITY":0.0002087,"INCLINATION":86.5109,"RA_OF_ASC_NODE":302.6134,"ARG_OF_PERICENTER":113.8588,"MEAN_ANOMALY":246.2765,"EPHEMERIS_TYPE":0,"NORAD_CAT_ID":63691,"ELEMENT_SET_NO":999,"REV_AT_EPOCH":5905,"BSTAR":0.000070636,"MEAN_MOTION_DOT":4.5e-7,"MEAN_MOTION_DDOT":0},{"OBJECT_NAME":"HULIANWANG DIGUI-25","OBJECT_ID":"2025-086F","EPOCH":"2026-07-18T19:12:32.294592","CLASSIFICATION_TYPE":"U","MEAN_MOTION":13.24410497,"ECCENTRICITY":0.0002031,"INCLINATION":86.5048,"RA_OF_ASC_NODE":302.378,"ARG_OF_PERICENTER":111.796,"MEAN_ANOMALY":248.339,"EPHEMERIS_TYPE":0,"NORAD_CAT_ID":63692,"ELEMENT_SET_NO":999,"REV_AT_EPOCH":5904,"BSTAR":0.000045487,"MEAN_MOTION_DOT":3.4e-7,"MEAN_MOTION_DDOT":0},{"OBJECT_NAME":"HULIANWANG DIGUI-26","OBJECT_ID":"2025-086G","EPOCH":"2026-07-18T20:28:38.844768","CLASSIFICATION_TYPE":"U","MEAN_MOTION":13.2440948,"ECCENTRICITY":0.0002264,"INCLINATION":86.5096,"RA_OF_ASC_NODE":302.5502,"ARG_OF_PERICENTER":116.652,"MEAN_ANOMALY":243.4846,"EPHEMERIS_TYPE":0,"NORAD_CAT_ID":63693,"ELEMENT_SET_NO":999,"REV_AT_EPOCH":5905,"BSTAR":0.00012005,"MEAN_MOTION_DOT":6.6e-7,"MEAN_MOTION_DDOT":0},{"OBJECT_NAME":"HULIANWANG DIGUI-27","OBJECT_ID":"2025-086H","EPOCH":"2026-07-18T19:23:22.333632","CLASSIFICATION_TYPE":"U","MEAN_MOTION":13.2441231,"ECCENTRICITY":0.0002105,"INCLINATION":86.5057,"RA_OF_ASC_NODE":302.4223,"ARG_OF_PERICENTER":113.195,"MEAN_ANOMALY":246.9406,"EPHEMERIS_TYPE":0,"NORAD_CAT_ID":63694,"ELEMENT_SET_NO":999,"REV_AT_EPOCH":5904,"BSTAR":0.000032239,"MEAN_MOTION_DOT":2.8e-7,"MEAN_MOTION_DDOT":0}]}
