HULIANWANG DIGUI-12     
1 62972U 25030B   26199.81910971 -.00000094  00000+0  65000-4 0  9997
2 62972  50.0019 122.5009 0000907 283.2107  76.8664 13.29322430 70060
HULIANWANG DIGUI-13     
1 62973U 25030C   26199.80230662 -.00000100  00000+0  51698-4 0  9995
2 62973  50.0022 122.4290 0000719 284.1720  75.9072 13.29324556 70062
HULIANWANG DIGUI-14     
1 62974U 25030D   26199.77730205 -.00000094  00000+0  65477-4 0  9992
2 62974  50.0027 122.3219 0000730 288.9470  71.1323 13.29327518 70063
HULIANWANG DIGUI-15     
1 62975U 25030E   26199.79397889 -.00000101  00000+0  49224-4 0  9993
2 62975  50.0023 122.3887 0000815 287.3398  72.7385 13.29324533 70066
HULIANWANG DIGUI-16     
1 62976U 25030F   26199.84421097 -.00000098  00000+0  57159-4 0  9990
2 62976  50.0045 122.0795 0000697 287.5928  72.4868 13.29325611 70077
HULIANWANG DIGUI-17     
1 62977U 25030G   26199.83575823 -.00000093  00000+0  66914-4 0  9991
2 62977  50.0058 122.0874 0000809 278.8617  81.2163 13.29325751 70074
HULIANWANG DIGUI-18     
1 62978U 25030H   26199.82738203 -.00000091  00000+0  71807-4 0  9999
2 62978  50.0062 122.0585 0000837 278.3630  81.7147 13.29327755 70073
HULIANWANG DIGUI-19     
1 62979U 25030J   26199.78576543 -.00000099  00000+0  53273-4 0  9997
2 62979  50.0047 122.4438 0000726 277.1910  82.8879 13.29319091 70060
HULIANWANG DIGUI-20     
1 63687U 25086A   26199.83058337  .00000047  00000+0  75015-4 0  9997
2 63687  86.5066 302.4758 0002105 111.8574 248.2784 13.24411661 59061
HULIANWANG DIGUI-21     
1 63688U 25086B   26199.83817054  .00000052  00000+0  88062-4 0  9999
2 63688  86.5095 302.5395 0002051 114.7592 245.3756 13.24410290 59057
HULIANWANG DIGUI-22     
1 63689U 25086C   26199.84569073  .00000064  00000+0  11609-3 0  9991
2 63689  86.5060 302.3943 0002145 111.0251 249.1113 13.24410658 59050
HULIANWANG DIGUI-23     
1 63690U 25086D   26199.78522852  .00000062  00000+0  11102-3 0  9996
2 63690  86.5102 302.6058 0002120 111.5412 248.5948 13.24410471 59047
HULIANWANG DIGUI-24     
1 63691U 25086E   26199.86836589  .00000045  00000+0  70636-4 0  9990
2 63691  86.5109 302.6134 0002087 113.8588 246.2765 13.24411153 59052
HULIANWANG DIGUI-25     
1 63692U 25086F   26199.80037378  .00000034  00000+0  45487-4 0  9998
2 63692  86.5048 302.3780 0002031 111.7960 248.3390 13.24410497 59045
HULIANWANG DIGUI-26     
1 63693U 25086G   26199.85322737  .00000066  00000+0  12005-3 0  9994
2 63693  86.5096 302.5502 0002264 116.6520 243.4846 13.24409480 59050
HULIANWANG DIGUI-27     
1 63694U 25086H   26199.80789738  .00000028  00000+0  32239-4 0  9998
2 63694  86.5057 302.4223 0002105 113.1950 246.9406 13.24412310 59045
